0 GLOBALSTAR M075
1 37192U 10054E   24149.65531029 -.00000071  00000-0  18546-3 0  9999
2 37192  51.9953 272.3511 0000773 127.0156 336.0794 12.62274821627817
0 GLOBALSTAR M073
1 37193U 10054F   24149.39919380 -.00000094  00000-0  56505-4 0  9994
2 37193  52.0038 186.6586 0000189 187.8182 189.5944 12.62265904629246
0 GLOBALSTAR M083
1 37739U 11033A   24149.44487940 -.00000107  00000-0 -18727-4 0  9996
2 37739  51.9844 135.7734 0000395  67.6935  98.9119 12.62270212598267
0 GLOBALSTAR M088
1 37740U 11033B   24149.41955571 -.00000085  00000-0  10200-3 0  9996
2 37740  51.9757  41.6647 0000871  77.6352  94.2202 12.62268494593809
0 GLOBALSTAR M091
1 37741U 11033C   24149.35374802 -.00000089  00000-0  84408-4 0  9998
2 37741  52.0019   4.7350 0001137  92.1758  79.3310 12.62263098594587
0 GLOBALSTAR M085
1 37742U 11033D   24149.46504550 -.00000085  00000-0  10399-3 0  9999
2 37742  51.9880 315.7736 0001083 107.8670 270.6805 12.62271395595116
0 GLOBALSTAR M081
1 37743U 11033E   24149.41069775 -.00000081  00000-0  12472-3 0  9990
2 37743  51.9971 318.4897 0001025 117.2777 253.4390 12.62265365595258
0 GLOBALSTAR M089
1 37744U 11033F   24149.54517354 -.00000081  00000-0  12963-3 0  9991
2 37744  51.9934 272.3824 0000500 155.9207 284.8600 12.62264159596118
